CCSDS_OMM_VERS = 2.0
CREATION_DATE  = 
ORIGINATOR     = 

OBJECT_NAME    = IDEFIX & ARIANE 42P R/B
OBJECT_ID      = 2002-021B
CENTER_NAME    = EARTH
REF_FRAME      = TEME
TIME_SYSTEM    = UTC
MEAN_ELEMENT_THEORY = SGP/SGP4

EPOCH          = 2026-02-07T10:19:16.573152
MEAN_MOTION    = 14.31004261
ECCENTRICITY   = .00107046
INCLINATION    = 98.5841
RA_OF_ASC_NODE = 337.4041
ARG_OF_PERICENTER = 278.2398
MEAN_ANOMALY   = 81.7571

EPHEMERIS_TYPE = 0
CLASSIFICATION_TYPE = U
NORAD_CAT_ID   = 27422
ELEMENT_SET_NO = 999
REV_AT_EPOCH   = 23969
BSTAR          = .18374855E-3
MEAN_MOTION_DOT = .44E-5
MEAN_MOTION_DDOT = 0

CCSDS_OMM_VERS = 2.0
CREATION_DATE  = 
ORIGINATOR     = 

OBJECT_NAME    = AQUA
OBJECT_ID      = 2002-022A
CENTER_NAME    = EARTH
REF_FRAME      = TEME
TIME_SYSTEM    = UTC
MEAN_ELEMENT_THEORY = SGP/SGP4

EPOCH          = 2026-02-07T15:17:03.404544
MEAN_MOTION    = 14.61901906
ECCENTRICITY   = .00015471
INCLINATION    = 98.4122
RA_OF_ASC_NODE = 5.4676
ARG_OF_PERICENTER = 53.8031
MEAN_ANOMALY   = 0.3570

EPHEMERIS_TYPE = 0
CLASSIFICATION_TYPE = U
NORAD_CAT_ID   = 27424
ELEMENT_SET_NO = 999
REV_AT_EPOCH   = 26434
BSTAR          = .30992082E-3
MEAN_MOTION_DOT = .1501E-4
MEAN_MOTION_DDOT = 0

CCSDS_OMM_VERS = 2.0
CREATION_DATE  = 
ORIGINATOR     = 

OBJECT_NAME    = CZ-4B R/B
OBJECT_ID      = 2002-024C
CENTER_NAME    = EARTH
REF_FRAME      = TEME
TIME_SYSTEM    = UTC
MEAN_ELEMENT_THEORY = SGP/SGP4

EPOCH          = 2026-02-07T16:01:23.670912
MEAN_MOTION    = 14.14542175
ECCENTRICITY   = .00511485
INCLINATION    = 98.8904
RA_OF_ASC_NODE = 92.2159
ARG_OF_PERICENTER = 108.0650
MEAN_ANOMALY   = 6.0684

EPHEMERIS_TYPE = 0
CLASSIFICATION_TYPE = U
NORAD_CAT_ID   = 27432
ELEMENT_SET_NO = 999
REV_AT_EPOCH   = 22499
BSTAR          = .45295346E-4
MEAN_MOTION_DOT = .44E-6
MEAN_MOTION_DDOT = 0

CCSDS_OMM_VERS = 2.0
CREATION_DATE  = 
ORIGINATOR     = 

OBJECT_NAME    = MIDORI II (ADEOS-II)
OBJECT_ID      = 2002-056A
CENTER_NAME    = EARTH
REF_FRAME      = TEME
TIME_SYSTEM    = UTC
MEAN_ELEMENT_THEORY = SGP/SGP4

EPOCH          = 2026-02-07T11:47:36.350880
MEAN_MOTION    = 14.29262072
ECCENTRICITY   = .00021273
INCLINATION    = 98.7718
RA_OF_ASC_NODE = 356.7713
ARG_OF_PERICENTER = 85.4201
MEAN_ANOMALY   = 274.7224

EPHEMERIS_TYPE = 0
CLASSIFICATION_TYPE = U
NORAD_CAT_ID   = 27597
ELEMENT_SET_NO = 999
REV_AT_EPOCH   = 20598
BSTAR          = .20490245E-3
MEAN_MOTION_DOT = .476E-5
MEAN_MOTION_DDOT = 0

CCSDS_OMM_VERS = 2.0
CREATION_DATE  = 
ORIGINATOR     = 

OBJECT_NAME    = H-2A R/B
OBJECT_ID      = 2002-056E
CENTER_NAME    = EARTH
REF_FRAME      = TEME
TIME_SYSTEM    = UTC
MEAN_ELEMENT_THEORY = SGP/SGP4

EPOCH          = 2026-02-07T11:58:11.418528
MEAN_MOTION    = 14.33739137
ECCENTRICITY   = .00690306
INCLINATION    = 98.3148
RA_OF_ASC_NODE = 0.0240
ARG_OF_PERICENTER = 251.3578
MEAN_ANOMALY   = 218.1710

EPHEMERIS_TYPE = 0
CLASSIFICATION_TYPE = U
NORAD_CAT_ID   = 27601
ELEMENT_SET_NO = 999
REV_AT_EPOCH   = 20978
BSTAR          = .17317575E-3
MEAN_MOTION_DOT = .452E-5
MEAN_MOTION_DDOT = 0

CCSDS_OMM_VERS = 2.0
CREATION_DATE  = 
ORIGINATOR     = 

OBJECT_NAME    = CZ-4B R/B
OBJECT_ID      = 2003-049C
CENTER_NAME    = EARTH
REF_FRAME      = TEME
TIME_SYSTEM    = UTC
MEAN_ELEMENT_THEORY = SGP/SGP4

EPOCH          = 2026-02-07T14:33:48.971520
MEAN_MOTION    = 14.54986845
ECCENTRICITY   = .00475234
INCLINATION    = 98.6848
RA_OF_ASC_NODE = 32.3396
ARG_OF_PERICENTER = 324.7277
MEAN_ANOMALY   = 35.0777

EPHEMERIS_TYPE = 0
CLASSIFICATION_TYPE = U
NORAD_CAT_ID   = 28059
ELEMENT_SET_NO = 999
REV_AT_EPOCH   = 18222
BSTAR          = .16764245E-3
MEAN_MOTION_DOT = .681E-5
MEAN_MOTION_DDOT = 0

CCSDS_OMM_VERS = 2.0
CREATION_DATE  = 
ORIGINATOR     = 

OBJECT_NAME    = CZ-2C R/B
OBJECT_ID      = 2004-012C
CENTER_NAME    = EARTH
REF_FRAME      = TEME
TIME_SYSTEM    = UTC
MEAN_ELEMENT_THEORY = SGP/SGP4

EPOCH          = 2026-02-07T15:23:27.855168
MEAN_MOTION    = 15.61098688
ECCENTRICITY   = .00161299
INCLINATION    = 97.7302
RA_OF_ASC_NODE = 101.1604
ARG_OF_PERICENTER = 63.7812
MEAN_ANOMALY   = 296.5101

EPHEMERIS_TYPE = 0
CLASSIFICATION_TYPE = U
NORAD_CAT_ID   = 28222
ELEMENT_SET_NO = 999
REV_AT_EPOCH   = 19958
BSTAR          = .76988703E-3
MEAN_MOTION_DOT = .65546E-3
MEAN_MOTION_DDOT = 0

CCSDS_OMM_VERS = 2.0
CREATION_DATE  = 
ORIGINATOR     = 

OBJECT_NAME    = SL-16 R/B
OBJECT_ID      = 2004-021B
CENTER_NAME    = EARTH
REF_FRAME      = TEME
TIME_SYSTEM    = UTC
MEAN_ELEMENT_THEORY = SGP/SGP4

EPOCH          = 2026-02-07T02:54:40.045248
MEAN_MOTION    = 14.14589586
ECCENTRICITY   = .00028848
INCLINATION    = 71.0002
RA_OF_ASC_NODE = 296.6458
ARG_OF_PERICENTER = 86.3594
MEAN_ANOMALY   = 273.7859

EPHEMERIS_TYPE = 0
CLASSIFICATION_TYPE = U
NORAD_CAT_ID   = 28353
ELEMENT_SET_NO = 999
REV_AT_EPOCH   = 11851
BSTAR          = .60672468E-4
MEAN_MOTION_DOT = .69E-6
MEAN_MOTION_DDOT = 0

CCSDS_OMM_VERS = 2.0
CREATION_DATE  = 
ORIGINATOR     = 

OBJECT_NAME    = CZ-4B R/B
OBJECT_ID      = 2004-035C
CENTER_NAME    = EARTH
REF_FRAME      = TEME
TIME_SYSTEM    = UTC
MEAN_ELEMENT_THEORY = SGP/SGP4

EPOCH          = 2026-02-07T14:29:51.681696
MEAN_MOTION    = 15.28506900
ECCENTRICITY   = .00341888
INCLINATION    = 97.3548
RA_OF_ASC_NODE = 73.2134
ARG_OF_PERICENTER = 76.4565
MEAN_ANOMALY   = 284.0480

EPHEMERIS_TYPE = 0
CLASSIFICATION_TYPE = U
NORAD_CAT_ID   = 28415
ELEMENT_SET_NO = 999
REV_AT_EPOCH   = 17531
BSTAR          = .38322633E-3
MEAN_MOTION_DOT = .10746E-3
MEAN_MOTION_DDOT = 0

CCSDS_OMM_VERS = 2.0
CREATION_DATE  = 
ORIGINATOR     = 

OBJECT_NAME    = CZ-2C R/B
OBJECT_ID      = 2004-046B
CENTER_NAME    = EARTH
REF_FRAME      = TEME
TIME_SYSTEM    = UTC
MEAN_ELEMENT_THEORY = SGP/SGP4

EPOCH          = 2026-02-07T14:45:22.922496
MEAN_MOTION    = 14.26981462
ECCENTRICITY   = .01382715
INCLINATION    = 98.1995
RA_OF_ASC_NODE = 315.4666
ARG_OF_PERICENTER = 243.6455
MEAN_ANOMALY   = 115.0474

EPHEMERIS_TYPE = 0
CLASSIFICATION_TYPE = U
NORAD_CAT_ID   = 28480
ELEMENT_SET_NO = 999
REV_AT_EPOCH   = 10421
BSTAR          = .93449569E-4
MEAN_MOTION_DOT = .209E-5
MEAN_MOTION_DDOT = 0

CCSDS_OMM_VERS = 2.0
CREATION_DATE  = 
ORIGINATOR     = 

OBJECT_NAME    = ARIANE 5 R/B
OBJECT_ID      = 2004-049H
CENTER_NAME    = EARTH
REF_FRAME      = TEME
TIME_SYSTEM    = UTC
MEAN_ELEMENT_THEORY = SGP/SGP4

EPOCH          = 2026-02-07T10:49:26.387040
MEAN_MOTION    = 14.85203859
ECCENTRICITY   = .00855014
INCLINATION    = 98.2578
RA_OF_ASC_NODE = 205.7872
ARG_OF_PERICENTER = 89.1372
MEAN_ANOMALY   = 271.9637

EPHEMERIS_TYPE = 0
CLASSIFICATION_TYPE = U
NORAD_CAT_ID   = 28499
ELEMENT_SET_NO = 999
REV_AT_EPOCH   = 14130
BSTAR          = .1631916E-3
MEAN_MOTION_DOT = .143E-4
MEAN_MOTION_DDOT = 0

CCSDS_OMM_VERS = 2.0
CREATION_DATE  = 
ORIGINATOR     = 

OBJECT_NAME    = CZ-2D R/B
OBJECT_ID      = 2005-024B
CENTER_NAME    = EARTH
REF_FRAME      = TEME
TIME_SYSTEM    = UTC
MEAN_ELEMENT_THEORY = SGP/SGP4

EPOCH          = 2026-02-07T14:25:54.845472
MEAN_MOTION    = 15.57518842
ECCENTRICITY   = .00073458
INCLINATION    = 97.3623
RA_OF_ASC_NODE = 52.7065
ARG_OF_PERICENTER = 119.3364
MEAN_ANOMALY   = 240.8626

EPHEMERIS_TYPE = 0
CLASSIFICATION_TYPE = U
NORAD_CAT_ID   = 28738
ELEMENT_SET_NO = 999
REV_AT_EPOCH   = 13509
BSTAR          = .59370058E-3
MEAN_MOTION_DOT = .43791E-3
MEAN_MOTION_DDOT = 0

