IDEFIX & ARIANE 42P R/B 
1 27422U 02021B   26038.43005293  .00000440  00000+0  18375-3 0  9991
2 27422  98.5841 337.4041 0010704 278.2398  81.7571 14.31004261239697
AQUA                    
1 27424U 02022A   26038.63684496  .00001501  00000+0  30992-3 0  9992
2 27424  98.4122   5.4676 0001547  53.8031   0.3570 14.61901906264343
CZ-4B R/B               
1 27432U 02024C   26038.66763508  .00000044  00000+0  45295-4 0  9992
2 27432  98.8904  92.2159 0051148 108.0650   6.0684 14.14542175224999
MIDORI II (ADEOS-II)    
1 27597U 02056A   26038.49139295  .00000476  00000+0  20490-3 0  9998
2 27597  98.7718 356.7713 0002127  85.4201 274.7224 14.29262072205983
H-2A R/B                
1 27601U 02056E   26038.49874327  .00000452  00000+0  17318-3 0  9995
2 27601  98.3148   0.0240 0069030 251.3578 218.1710 14.33739137209783
CZ-4B R/B               
1 28059U 03049C   26038.60681680  .00000681  00000+0  16764-3 0  9995
2 28059  98.6848  32.3396 0047523 324.7277  35.0777 14.54986845182226
CZ-2C R/B               
1 28222U 04012C   26038.64129462  .00065546  00000+0  76989-3 0  9993
2 28222  97.7302 101.1604 0016129  63.7812 296.5101 15.61098688199583
SL-16 R/B               
1 28353U 04021B   26038.12129682  .00000069  00000+0  60672-4 0  9997
2 28353  71.0002 296.6458 0002884  86.3594 273.7859 14.14589586118518
CZ-4B R/B               
1 28415U 04035C   26038.60407039  .00010746  00000+0  38323-3 0  9999
2 28415  97.3548  73.2134 0034188  76.4565 284.0480 15.28506900175314
CZ-2C R/B               
1 28480U 04046B   26038.61484864  .00000209  00000+0  93450-4 0  9991
2 28480  98.1995 315.4666 0138271 243.6455 115.0474 14.26981462104210
ARIANE 5 R/B            
1 28499U 04049H   26038.45099985  .00001430  00000+0  16319-3 0  9997
2 28499  98.2578 205.7872 0085501  89.1372 271.9637 14.85203859141302
CZ-2D R/B               
1 28738U 05024B   26038.60132923  .00043791  00000+0  59370-3 0  9994
2 28738  97.3623  52.7065 0007345 119.3364 240.8626 15.57518842135093
